82P/Gehrels,e,1.1284,239.3137,226.9351,4.137518,0.1171101,0.12180806,77.3176,04/17.0/2020,2000,g  5.0,8.0
# From MPC105241
84P/Giclas,e,7.5523,108.1749,281.5615,3.547184,0.1475294,0.51543383,352.9464,04/17.0/2020,2000,g  9.5,8.0
# From MPC109147
86P/Wild,e,15.4755,72.3762,179.3073,3.604245,0.1440398,0.37264846,264.7501,04/17.0/2020,2000,g 11.0,6.0
# From MPC105241
87P/Bus,e,2.6023,181.8619,24.9284,3.437739,0.1546304,0.38917969,356.5601,04/17.0/2020,2000,g  7.2,10.0
# From MPEC 2019-JE2
88P/Howell,e,4.3838,56.6854,235.9169,3.105388,0.1801068,0.56427542,330.7093,04/17.0/2020,2000,g 11.0,6.0
# From MPC100283
89P/Russell,e,12.0713,41.4189,250.2572,3.753908,0.1355123,0.40868520,165.1123,04/17.0/2020,2000,g 11.5,6.0
# From MPC107051
90P/Gehrels,e,9.6399,13.2168,29.1253,6.056126,0.0661320,0.50953680,68.3272,04/17.0/2020,2000,g  8.5,6.0
# From MPC105241
91P/Russell,e,14.0916,247.8284,354.7771,3.890482,0.1284396,0.33058756,333.5029,04/17.0/2020,2000,g  7.5,6.0
# From MPEC 2014-J58
92P/Sanguin,e,19.4749,181.3928,163.7092,5.345861,0.0797403,0.66036410,149.3159,04/17.0/2020,2000,g 12.0,6.0
# From NK 2707
93P/Lovas,e,12.2010,339.6244,74.8756,4.384995,0.1073372,0.61203100,122.7103,04/17.0/2020,2000,g  9.0,4.0
# From MPEC 2013-O31
94P/Russell,e,6.1879,70.8596,92.5200,3.506988,0.1500730,0.36471377,190.3999,04/17.0/2020,2000,g  9.0,4.0
# From MPC 75717
95P/Chiron,e,6.9405,209.2391,339.8131,13.68367,0.0194715,0.37898999,171.9784,04/17.0/2020,2000,g  6.5,2.0
# From MPEC 2017-T14
96P/Machholz,e,58.3786,94.2632,14.6301,3.027815,0.1870726,0.96130757,168.9302,04/17.0/2020,2000,g  9.0,4.0
# From MPC 77020
97P/Metcalf-Brewington,e,17.8709,184.4008,229.1772,4.786745,0.0941117,0.46135995,297.1312,04/17.0/2020,2000,g  5.5,6.0
# From MPEC 2013-H38
98P/Takamizawa,e,10.5613,114.7111,157.9099,3.799073,0.1331030,0.56220315,325.0047,04/17.0/2020,2000,g  9.0,8.0
# From MPC 75718
99P/Kowal,e,4.3378,28.1281,174.9014,6.114683,0.0651843,0.23045212,312.7183,04/17.0/2020,2000,g  4.5,6.0
# From MPEC 2013-O31
100P/Hartley,e,25.5742,37.7193,182.0023,3.431464,0.1550547,0.41270467,228.8639,04/17.0/2020,2000,g  9.0,4.0
# From MPC115887
101P/Chernykh,e,5.0528,116.2313,277.6942,5.797681,0.0706029,0.59554505,6.7414,04/17.0/2020,2000,g 12.0,4.8
# From MPC 86232
102P/Shoemaker,e,25.8734,339.3892,20.5353,3.815920,0.1322224,0.45768503,322.9263,04/17.0/2020,2000,g  6.5,8.0
# From MPEC 2018-HA5
103P/Hartley,e,13.5921,219.7274,181.3006,3.476801,0.1520318,0.69284658,166.2142,04/17.0/2020,2000,g  8.5,8.0
# From MPC100283
104P/Kowal,e,5.7698,209.3169,225.4380,3.203025,0.1719347,0.67017763,251.4018,04/17.0/2020,2000,g 16.0,4.0
# From MPC109147
105P/Singer Brewster,e,9.1740,192.4200,46.4584,3.466204,0.1527295,0.40998893,94.0629,04/17.0/2020,2000,g 11.5,6.0
# From MPC 92276
106P/Schuster,e,19.5770,49.0663,353.5622,3.763814,0.1349776,0.59466679,294.0615,04/17.0/2020,2000,g 14.0,4.8
# From MPEC 2015-M77
107P/Wilson-Harrington,e,2.7983,266.8178,95.3712,2.626005,0.2316118,0.63113317,160.8240,04/17.0/2020,2000,g  9.0,4.0
# From MPC 89313
108P/Ciffreo,e,11.4781,50.6030,354.1878,3.742262,0.1361453,0.55775041,290.5023,04/17.0/2020,2000,g  8.0,12.0
# From  105, 420
109P/Swift-Tuttle,e,113.8950,139.1121,152.8779,26.10451,0.0073898,0.96321537,73.9069,04/17.0/2020,2000,g  4.0,6.0
# From MPC 92276
110P/Hartley,e,11.7074,287.5340,167.4301,3.600862,0.1442429,0.31776011,280.7554,04/17.0/2020,2000,g  1.0,12.0
# From MPC 75718
111P/Helin-Roman-Crockett,e,4.2275,89.7632,1.2118,4.144035,0.1168339,0.10542572,310.2085,04/17.0/2020,2000,g  5.0,8.0
# From MPC118097
112P/Urata-Niijima,e,24.1906,31.8492,21.5002,3.526227,0.1488465,0.58975509,10.2755,04/17.0/2020,2000,g 14.0,6.0
# From MPEC 2015-E14
113P/Spitaler,e,5.2552,306.9621,115.5525,3.691858,0.1389430,0.43157624,253.3136,04/17.0/2020,2000,g 13.5,4.0
# From MPEC 2019-TG9
114P/Wiseman-Skiff,e,18.2723,271.0598,172.8102,3.547324,0.1475206,0.55476697,13.8552,04/17.0/2020,2000,g 11.5,6.0
# From MPC105241
115P/Maury,e,11.6740,176.0289,121.0219,4.275664,0.1114805,0.51894253,348.4289,04/17.0/2020,2000,g 10.5,6.0
# From MPC106348
116P/Wild,e,3.6044,20.9991,173.3962,3.488140,0.1512910,0.37100099,235.7989,04/17.0/2020,2000,g  2.5,10.0
# From MPEC 2015-S97
117P/Helin-Roman-Alu,e,8.7012,58.8596,222.6854,4.087576,0.1192629,0.25573679,263.3242,04/17.0/2020,2000,g  9.0,4.0
# From MPC 95735
118P/Shoemaker-Levy,e,9.1916,144.6575,309.6983,3.411312,0.1564307,0.45395485,213.1763,04/17.0/2020,2000,g 12.0,4.0
# From MPC 84628
119P/Parker-Hartley,e,7.5361,104.9381,321.4468,3.816972,0.1321678,0.40994493,250.6891,04/17.0/2020,2000,g  3.5,8.0
# From MPC 80901
120P/Mueller,e,8.4832,358.7051,36.3548,3.968227,0.1246836,0.37523601,312.0599,04/17.0/2020,2000,g 12.0,4.0
# From MPC100283
121P/Shoemaker-Holt,e,20.1641,94.1413,11.2310,4.587180,0.1003195,0.18475036,242.9706,04/17.0/2020,2000,g  6.5,8.0
# From MPC 75718
122P/de Vico,e,84.6214,79.5093,13.0244,17.63509,0.0133088,0.96229859,119.4676,04/17.0/2020,2000,g  7.5,5.2
# From MPC114608
123P/West-Hartley,e,15.3484,46.4840,103.1651,3.862252,0.1298504,0.44880821,56.6879,04/17.0/2020,2000,g  4.0,10.0
# From MPC118097
124P/Mrkos,e,31.5128,0.3708,183.8551,3.318020,0.1630743,0.50346209,358.3874,04/17.0/2020,2000,g 13.5,2.8
# From MPEC 2015-M77
125P/Spacewatch,e,9.9876,153.1664,87.2057,3.124739,0.1784364,0.51320503,106.7293,04/17.0/2020,2000,g  9.0,4.0
# From MPC 66205
126P/IRAS,e,45.8425,357.8419,356.4952,5.642536,0.0735347,0.69590908,273.6219,04/17.0/2020,2000,g  9.0,4.0
# From MPC 84321
127P/Holt-Olmstead,e,14.2986,13.6485,6.5556,3.449354,0.1538500,0.35979414,229.7648,04/17.0/2020,2000,g 11.0,6.0
# From MPC 89014
128P/Shoemaker-Holt,e,4.3655,214.2926,210.4079,4.494630,0.1034340,0.32032497,123.4444,04/17.0/2020,2000,g  8.5,4.0
# From MPEC 2019-TG9
129P/Shoemaker-Levy,e,3.4433,184.8926,308.2788,4.280405,0.1112953,0.08392207,252.7517,04/17.0/2020,2000,g 11.0,4.0
# From MPC 78188
130P/McNaught-Hughes,e,6.0643,70.2501,245.9490,3.383824,0.1583407,0.46124320,129.1928,04/17.0/2020,2000,g 10.0,6.0
# From MPC102101
131P/Mueller,e,7.3532,214.1809,179.0514,3.681743,0.1395160,0.34353566,62.6211,04/17.0/2020,2000,g 11.0,4.0
# From MPC 92985
132P/Helin-Roman-Alu,e,5.3787,174.1741,216.4018,3.881134,0.1289039,0.56565234,285.8632,04/17.0/2020,2000,g 11.0,6.0
# From MPC 94676
133P/Elst-Pizarro,e,1.3891,160.1297,131.6530,3.163228,0.1751896,0.15722887,100.4987,04/17.0/2020,2000,g 15.4,2.0
# From MPC 89012
134P/Kowal-Vavrova,e,4.3453,202.0836,18.8601,6.256555,0.0629798,0.58701484,135.8948,04/17.0/2020,2000,g 11.5,4.0
# From MPEC 2015-E14
135P/Shoemaker-Levy,e,6.0615,213.0544,22.2275,3.804500,0.1328182,0.29559349,264.3834,04/17.0/2020,2000,g  9.0,4.0
# From MPC101100
136P/Mueller,e,9.4231,137.4416,224.8977,4.196023,0.1146693,0.29198313,162.4861,04/17.0/2020,2000,g 11.0,4.0
# From MPEC 2019-VB6
137P/Shoemaker-Levy,e,4.8534,233.0718,141.0076,4.520458,0.1025487,0.57313769,50.3082,04/17.0/2020,2000,g 11.0,4.0
# From MPEC 2016-U66
138P/Shoemaker-Levy,e,10.0906,309.3301,95.5928,3.623654,0.1428841,0.53018681,50.0466,04/17.0/2020,2000,g 15.0,6.0
# From MPC108598
139P/Vaisala-Oterma,e,2.3333,242.2015,165.8222,4.525529,0.1023765,0.24623732,87.9840,04/17.0/2020,2000,g  9.5,4.0
# From MPEC 2015-E14
140P/Bowell-Skiff,e,3.8264,343.3273,172.9347,6.437644,0.0603412,0.69113622,103.4832,04/17.0/2020,2000,g 11.5,6.0
# From MPC105242
141P/Machholz,e,13.9516,241.8653,153.5408,3.056431,0.1844515,0.73579029,315.2928,04/17.0/2020,2000,g 12.0,12.0
# From MPC 95735
141P-H/Machholz,e,12.8431,246.0900,149.4500,3.008012,0.1889230,0.74682218,359.9270,08/24.0/2015,2000,g 18.5,4.0
# From MPC 71683
142P/Ge-Wang,e,12.2385,176.0608,174.0111,5.003811,0.0880547,0.49836736,325.5633,04/17.0/2020,2000,g  9.0,4.0
# From MPC 94676
143P/Kowal-Mrkos,e,4.6970,245.2786,320.5251,4.287638,0.1110138,0.41059074,79.0277,04/17.0/2020,2000,g  9.0,4.0
# From MPC104795
144P/Kushida,e,4.0166,244.2425,215.6382,3.806963,0.1326894,0.64022056,176.9117,04/17.0/2020,2000,g  8.5,8.0
# From MPC108598
145P/Shoemaker-Levy,e,11.2644,26.7922,10.2755,4.140735,0.1169736,0.54079236,112.2045,04/17.0/2020,2000,g 13.5,4.0
# From MPC100284
146P/Shoemaker-LINEAR,e,23.0799,53.4310,316.9069,4.033861,0.1216530,0.64638652,168.7165,04/17.0/2020,2000,g 15.0,4.0
# From MPC 75720
147P/Kushida-Muramatsu,e,2.3740,93.3422,351.5358,3.926545,0.1266742,0.24901593,193.4483,04/17.0/2020,2000,g 14.0,4.0
# From MPEC 2014-R70
148P/Anderson-LINEAR,e,3.6830,89.6726,6.6317,3.653531,0.1411351,0.54615918,248.7094,04/17.0/2020,2000,g  9.0,4.0
# From MPC 75720
149P/Mueller,e,29.7855,145.1720,43.9855,4.323742,0.1096262,0.39067819,46.5292,04/17.0/2020,2000,g  8.0,8.0
# From MPC 75720
150P/LONEOS,e,18.5078,272.4057,245.5866,3.880185,0.1289512,0.54651943,175.7867,04/17.0/2020,2000,g 13.5,4.0
# From MPEC 2015-Q71
151P/Helin,e,4.7262,143.1470,216.0577,5.765312,0.0711983,0.57278660,117.6310,04/17.0/2020,2000,g 10.0,6.0
# From MPC 79346
152P/Helin-Lawrence,e,9.8798,91.8700,163.7854,4.481932,0.1038738,0.30917133,293.9413,04/17.0/2020,2000,g 11.5,4.0
# From MPC 46101
153P/Ikeya-Zhang,e,27.7026,93.0423,35.2157,50.93579,0.0027112,0.98967273,0.0000,03/11.7155/2002,2000,g  9.0,4.0
# From MPC 87068
154P/Brewington,e,17.6282,343.0072,47.8587,4.803991,0.0936054,0.67501662,217.7054,04/17.0/2020,2000,g  2.5,12.0
# From MPC118098
155P/Shoemaker,e,6.3959,97.1978,14.6621,6.587709,0.0582911,0.72648710,8.9764,04/17.0/2020,2000,g 10.0,4.8
# From MPC105242
156P/Russell-LINEAR,e,17.2629,35.3878,0.3899,3.461539,0.1530383,0.61487491,327.1218,04/17.0/2020,2000,g 15.5,2.0
# From MPC104795
157P/Tritton,e,12.8804,287.9529,156.8274,3.459758,0.1531565,0.59525616,229.6733,04/17.0/2020,2000,g 10.0,4.0
# From MPEC 2016-K18
158P/Kowal-LINEAR,e,7.9174,135.9136,202.2158,4.855465,0.0921208,0.01525951,294.4644,04/17.0/2020,2000,g  9.0,4.0
# From MPEC 2019-VB6
159P/LONEOS,e,23.4609,55.0104,4.6461,5.857509,0.0695240,0.38143892,48.3812,04/17.0/2020,2000,g 10.0,4.0
# From MPEC 2019-TG9
160P/LINEAR,e,15.6157,333.3680,12.6519,3.771659,0.1345567,0.52610456,18.3955,04/17.0/2020,2000,g 15.5,2.0
